{"type": "FeatureCollection", "features": [{"type": "Feature", "properties": {"norad_id": 25590, "name": "COSMOS 2361", "group": "musson", "lat": -82.20349860462187, "lon": -136.46179553678516, "alt_km": 974.8942860597872, "timestamp": "2025-12-20T03:42:47.662848+00:00", "meta": {"OBJECT_NAME": "COSMOS 2361", "OBJECT_ID": "1998-076A", "EPOCH": "2025-12-19T09:27:54.520128", "MEAN_MOTION": 13.73218304, "ECCENTRICITY": 0.0030144, "INCLINATION": 82.9341, "RA_OF_ASC_NODE": 339.1642, "ARG_OF_PERICENTER": 246.3066, "MEAN_ANOMALY": 223.5813, "EPHEMERIS_TYPE": 0, "CLASSIFICATION_TYPE": "U", "NORAD_CAT_ID": 25590, "ELEMENT_SET_NO": 999, "REV_AT_EPOCH": 35202, "BSTAR": 4.6612e-05, "MEAN_MOTION_DOT": 5.8e-07, "MEAN_MOTION_DDOT": 0}, "tle": {"line1": "1 25590U 98076A   25353.39438102  .00000058  00000+0  46612-4 0  9994", "line2": "2 25590  82.9341 339.1642 0030144 246.3066 223.5813 13.73218304352025"}}, "geometry": {"type": "Point", "coordinates": [-136.46179553678516, -82.20349860462187]}}, {"type": "Feature", "properties": {"norad_id": 26818, "name": "COSMOS 2378", "group": "musson", "lat": 3.699130477310923, "lon": -5.313530683897773, "alt_km": 1011.3031302538739, "timestamp": "2025-12-20T03:42:47.662874+00:00", "meta": {"OBJECT_NAME": "COSMOS 2378", "OBJECT_ID": "2001-023A", "EPOCH": "2025-12-19T10:45:28.864800", "MEAN_MOTION": 13.74142545, "ECCENTRICITY": 0.0032813, "INCLINATION": 82.927, "RA_OF_ASC_NODE": 354.7502, "ARG_OF_PERICENTER": 186.0025, "MEAN_ANOMALY": 284.9718, "EPHEMERIS_TYPE": 0, "CLASSIFICATION_TYPE": "U", "NORAD_CAT_ID": 26818, "ELEMENT_SET_NO": 999, "REV_AT_EPOCH": 23015, "BSTAR": 3.5693e-05, "MEAN_MOTION_DOT": 4.9e-07, "MEAN_MOTION_DDOT": 0}, "tle": {"line1": "1 26818U 01023A   25353.44825075  .00000049  00000+0  35693-4 0  9996", "line2": "2 26818  82.9270 354.7502 0032813 186.0025 284.9718 13.74142545230156"}}, "geometry": {"type": "Point", "coordinates": [-5.313530683897773, 3.699130477310923]}}, {"type": "Feature", "properties": {"norad_id": 27436, "name": "COSMOS 2389", "group": "musson", "lat": -56.97687738312395, "lon": 132.46952712911158, "alt_km": 1021.5171002434627, "timestamp": "2025-12-20T03:42:47.662888+00:00", "meta": {"OBJECT_NAME": "COSMOS 2389", "OBJECT_ID": "2002-026A", "EPOCH": "2025-12-19T19:40:02.584704", "MEAN_MOTION": 13.75155403, "ECCENTRICITY": 0.0047372, "INCLINATION": 82.9508, "RA_OF_ASC_NODE": 301.7437, "ARG_OF_PERICENTER": 41.471, "MEAN_ANOMALY": 337.5676, "EPHEMERIS_TYPE": 0, "CLASSIFICATION_TYPE": "U", "NORAD_CAT_ID": 27436, "ELEMENT_SET_NO": 999, "REV_AT_EPOCH": 18246, "BSTAR": 3.287e-05, "MEAN_MOTION_DOT": 4.7e-07, "MEAN_MOTION_DDOT": 0}, "tle": {"line1": "1 27436U 02026A   25353.81947436  .00000047  00000+0  32870-4 0  9996", "line2": "2 27436  82.9508 301.7437 0047372  41.4710 337.5676 13.75155403182463"}}, "geometry": {"type": "Point", "coordinates": [132.46952712911158, -56.97687738312395]}}, {"type": "Feature", "properties": {"norad_id": 27818, "name": "COSMOS 2398", "group": "musson", "lat": 62.347327398872174, "lon": 73.57022793363065, "alt_km": 963.0274973086371, "timestamp": "2025-12-20T03:42:47.662899+00:00", "meta": {"OBJECT_NAME": "COSMOS 2398", "OBJECT_ID": "2003-023A", "EPOCH": "2025-12-19T20:27:55.409760", "MEAN_MOTION": 13.72386446, "ECCENTRICITY": 0.0032731, "INCLINATION": 82.9484, "RA_OF_ASC_NODE": 267.4568, "ARG_OF_PERICENTER": 92.8147, "MEAN_ANOMALY": 332.5988, "EPHEMERIS_TYPE": 0, "CLASSIFICATION_TYPE": "U", "NORAD_CAT_ID": 27818, "ELEMENT_SET_NO": 999, "REV_AT_EPOCH": 12914, "BSTAR": 5.2249e-05, "MEAN_MOTION_DOT": 6.3e-07, "MEAN_MOTION_DDOT": 0}, "tle": {"line1": "1 27818U 03023A   25353.85272465  .00000063  00000+0  52249-4 0  9995", "line2": "2 27818  82.9484 267.4568 0032731  92.8147 332.5988 13.72386446129147"}}, "geometry": {"type": "Point", "coordinates": [73.57022793363065, 62.347327398872174]}}, {"type": "Feature", "properties": {"norad_id": 28380, "name": "COSMOS 2407", "group": "musson", "lat": 56.494079416492475, "lon": -141.83984795929823, "alt_km": 944.3815778807102, "timestamp": "2025-12-20T03:42:47.662910+00:00", "meta": {"OBJECT_NAME": "COSMOS 2407", "OBJECT_ID": "2004-028A", "EPOCH": "2025-12-19T20:30:35.407008", "MEAN_MOTION": 13.76314495, "ECCENTRICITY": 0.0040011, "INCLINATION": 82.9599, "RA_OF_ASC_NODE": 207.6249, "ARG_OF_PERICENTER": 35.4572, "MEAN_ANOMALY": 335.2999, "EPHEMERIS_TYPE": 0, "CLASSIFICATION_TYPE": "U", "NORAD_CAT_ID": 28380, "ELEMENT_SET_NO": 999, "REV_AT_EPOCH": 7521, "BSTAR": 6.1812e-05, "MEAN_MOTION_DOT": 7.6e-07, "MEAN_MOTION_DDOT": 0}, "tle": {"line1": "1 28380U 04028A   25353.85457647  .00000076  00000+0  61812-4 0  9993", "line2": "2 28380  82.9599 207.6249 0040011  35.4572 335.2999 13.76314495 75215"}}, "geometry": {"type": "Point", "coordinates": [-141.83984795929823, 56.494079416492475]}}, {"type": "Feature", "properties": {"norad_id": 28521, "name": "COSMOS 2414", "group": "musson", "lat": -82.93739624563229, "lon": 86.472040225871, "alt_km": 969.640868189299, "timestamp": "2025-12-20T03:42:47.662921+00:00", "meta": {"OBJECT_NAME": "COSMOS 2414", "OBJECT_ID": "2005-002A", "EPOCH": "2025-12-19T10:50:55.701312", "MEAN_MOTION": 13.8790381, "ECCENTRICITY": 0.0041226, "INCLINATION": 82.9488, "RA_OF_ASC_NODE": 179.5841, "ARG_OF_PERICENTER": 120.9895, "MEAN_ANOMALY": 239.5328, "EPHEMERIS_TYPE": 0, "CLASSIFICATION_TYPE": "U", "NORAD_CAT_ID": 28521, "ELEMENT_SET_NO": 999, "REV_AT_EPOCH": 5888, "BSTAR": 4.4826e-05, "MEAN_MOTION_DOT": 7e-07, "MEAN_MOTION_DDOT": 0}, "tle": {"line1": "1 28521U 05002A   25353.45203358  .00000070  00000+0  44826-4 0  9997", "line2": "2 28521  82.9488 179.5841 0041226 120.9895 239.5328 13.87903810 58884"}}, "geometry": {"type": "Point", "coordinates": [86.472040225871, -82.93739624563229]}}, {"type": "Feature", "properties": {"norad_id": 32052, "name": "COSMOS 2429", "group": "musson", "lat": 62.86369182268002, "lon": -8.248248894833187, "alt_km": 955.1883857352386, "timestamp": "2025-12-20T03:42:47.662931+00:00", "meta": {"OBJECT_NAME": "COSMOS 2429", "OBJECT_ID": "2007-038A", "EPOCH": "2025-12-19T16:55:45.234624", "MEAN_MOTION": 13.75150092, "ECCENTRICITY": 0.0038846, "INCLINATION": 82.9805, "RA_OF_ASC_NODE": 338.1734, "ARG_OF_PERICENTER": 18.7651, "MEAN_ANOMALY": 341.4927, "EPHEMERIS_TYPE": 0, "CLASSIFICATION_TYPE": "U", "NORAD_CAT_ID": 32052, "ELEMENT_SET_NO": 999, "REV_AT_EPOCH": 91698, "BSTAR": 3.9694e-05, "MEAN_MOTION_DOT": 5.3e-07, "MEAN_MOTION_DDOT": 0}, "tle": {"line1": "1 32052U 07038A   25353.70538466  .00000053  00000+0  39694-4 0  9999", "line2": "2 32052  82.9805 338.1734 0038846  18.7651 341.4927 13.75150092916988"}}, "geometry": {"type": "Point", "coordinates": [-8.248248894833187, 62.86369182268002]}}, {"type": "Feature", "properties": {"norad_id": 35635, "name": "COSMOS 2454", "group": "musson", "lat": 13.287469372587864, "lon": 164.69717212627933, "alt_km": 918.605766899519, "timestamp": "2025-12-20T03:42:47.662941+00:00", "meta": {"OBJECT_NAME": "COSMOS 2454", "OBJECT_ID": "2009-039A", "EPOCH": "2025-12-19T10:30:20.705760", "MEAN_MOTION": 13.89929402, "ECCENTRICITY": 0.0020257, "INCLINATION": 82.9554, "RA_OF_ASC_NODE": 163.5674, "ARG_OF_PERICENTER": 55.7855, "MEAN_ANOMALY": 332.3383, "EPHEMERIS_TYPE": 0, "CLASSIFICATION_TYPE": "U", "NORAD_CAT_ID": 35635, "ELEMENT_SET_NO": 999, "REV_AT_EPOCH": 83243, "BSTAR": 3.1583e-05, "MEAN_MOTION_DOT": 5.5e-07, "MEAN_MOTION_DDOT": 0}, "tle": {"line1": "1 35635U 09039A   25353.43773965  .00000055  00000+0  31583-4 0  9998", "line2": "2 35635  82.9554 163.5674 0020257  55.7855 332.3383 13.89929402832432"}}, "geometry": {"type": "Point", "coordinates": [164.69717212627933, 13.287469372587864]}}, {"type": "Feature", "properties": {"norad_id": 36519, "name": "COSMOS 2463", "group": "musson", "lat": -71.93691156366239, "lon": -0.9992764137300431, "alt_km": 976.8772496052816, "timestamp": "2025-12-20T03:42:47.662952+00:00", "meta": {"OBJECT_NAME": "COSMOS 2463", "OBJECT_ID": "2010-017A", "EPOCH": "2025-12-19T12:50:56.753376", "MEAN_MOTION": 13.71649731, "ECCENTRICITY": 0.0034742, "INCLINATION": 82.9605, "RA_OF_ASC_NODE": 21.7186, "ARG_OF_PERICENTER": 268.4983, "MEAN_ANOMALY": 201.5375, "EPHEMERIS_TYPE": 0, "CLASSIFICATION_TYPE": "U", "NORAD_CAT_ID": 36519, "ELEMENT_SET_NO": 999, "REV_AT_EPOCH": 78330, "BSTAR": 5.2986e-05, "MEAN_MOTION_DOT": 6.3e-07, "MEAN_MOTION_DDOT": 0}, "tle": {"line1": "1 36519U 10017A   25353.53537909  .00000063  00000+0  52986-4 0  9994", "line2": "2 36519  82.9605  21.7186 0034742 268.4983 201.5375 13.71649731783307"}}, "geometry": {"type": "Point", "coordinates": [-0.9992764137300431, -71.93691156366239]}}]}